$$SOE
2459580.500000000, A.D. 2022-Jan-01 00:00:00.0000, -6.535711210889529E+09, -3.513129501063418E+08, 2.412217242247912E+08,
2459587.500000000, A.D. 2022-Jan-08 00:00:00.0000, -6.535533331868674E+09, -3.539892909505702E+08, 2.415095661205708E+08,
2459594.500000000, A.D. 2022-Jan-15 00:00:00.0000, -6.535354402718449E+09, -3.566655549863699E+08, 2.417973677884766E+08,
2459601.500000000, A.D. 2022-Jan-22 00:00:00.0000, -6.535174419542585E+09, -3.593417432455916E+08, 2.420851288021809E+08,
2459608.500000000, A.D. 2022-Jan-29 00:00:00.0000, -6.534993377865959E+09, -3.620178542837234E+08, 2.423728488424936E+08,
2459615.500000000, A.D. 2022-Feb-05 00:00:00.0000, -6.534811274841670E+09, -3.646938848515562E+08, 2.426605278451264E+08,
2459622.500000000, A.D. 2022-Feb-12 00:00:00.0000, -6.534628109284792E+09, -3.673698316351030E+08, 2.429481658634129E+08,
2459629.500000000, A.D. 2022-Feb-19 00:00:00.0000, -6.534443880857590E+09, -3.700456916947587E+08, 2.432357629609820E+08,
2459636.500000000, A.D. 2022-Feb-26 00:00:00.0000, -6.534258589717552E+09, -3.727214623267065E+08, 2.435233191954032E+08,
2459643.500000000, A.D. 2022-Mar-05 00:00:00.0000, -6.534072236468977E+09, -3.753971409634379E+08, 2.438108346275294E+08,
2459650.500000000, A.D. 2022-Mar-12 00:00:00.0000, -6.533884822196292E+09, -3.780727251790226E+08, 2.440983093305337E+08,
2459657.500000000, A.D. 2022-Mar-19 00:00:00.0000, -6.533696348508036E+09, -3.807482127709441E+08, 2.443857433941115E+08,
2459664.500000000, A.D. 2022-Mar-26 00:00:00.0000, -6.533506817569126E+09, -3.834236019242526E+08, 2.446731369210185E+08,
2459671.500000000, A.D. 2022-Apr-02 00:00:00.0000, -6.533316232053576E+09, -3.860988915136551E+08, 2.449604900048963E+08,
2459678.500000000, A.D. 2022-Apr-09 00:00:00.0000, -6.533124594745635E+09, -3.887740815384800E+08, 2.452478026646043E+08,
2459685.500000000, A.D. 2022-Apr-16 00:00:00.0000, -6.532931907432210E+09, -3.914491730362304E+08, 2.455350747555660E+08,
2459692.500000000, A.D. 2022-Apr-23 00:00:00.0000, -6.532738170355432E+09, -3.941241663902533E+08, 2.458223060629903E+08,
2459699.500000000, A.D. 2022-Apr-30 00:00:00.0000, -6.532543384095529E+09, -3.967990602766473E+08, 2.461094965649348E+08,
2459706.500000000, A.D. 2022-May-07 00:00:00.0000, -6.532347550821280E+09, -3.994738532238478E+08, 2.463966464229399E+08,
2459713.500000000, A.D. 2022-May-14 00:00:00.0000, -6.532150673518656E+09, -4.021485447466076E+08, 2.466837558210362E+08,
2459720.500000000, A.D. 2022-May-21 00:00:00.0000, -6.531952755228731E+09, -4.048231352955791E+08, 2.469708249014236E+08,
2459727.500000000, A.D. 2022-May-28 00:00:00.0000, -6.531753798773664E+09, -4.074976259811959E+08, 2.472578537624006E+08,
2459734.500000000, A.D. 2022-Jun-04 00:00:00.0000, -6.531553806693623E+09, -4.101720183845806E+08, 2.475448424675887E+08,
2459741.500000000, A.D. 2022-Jun-11 00:00:00.0000, -6.531352781249946E+09, -4.128463144531447E+08, 2.478317910534015E+08,
2459748.500000000, A.D. 2022-Jun-18 00:00:00.0000, -6.531150724455831E+09, -4.155205164674009E+08, 2.481186995323537E+08,
2459755.500000000, A.D. 2022-Jun-25 00:00:00.0000, -6.530947638105043E+09, -4.181946271119246E+08, 2.484055678868799E+08,
2459762.500000000, A.D. 2022-Jul-02 00:00:00.0000, -6.530743523664608E+09, -4.208686497159567E+08, 2.486923960361002E+08,
2459769.500000000, A.D. 2022-Jul-09 00:00:00.0000, -6.530538381641128E+09, -4.235425884864449E+08, 2.489791837543221E+08,
2459776.500000000, A.D. 2022-Jul-16 00:00:00.0000, -6.530332210475934E+09, -4.262164476505530E+08, 2.492659306349822E+08,
2459783.500000000, A.D. 2022-Jul-23 00:00:00.0000, -6.530125007167406E+09, -4.288902294298220E+08, 2.495526363082116E+08,
2459790.500000000, A.D. 2022-Jul-30 00:00:00.0000, -6.529916769536390E+09, -4.315639341998695E+08, 2.498393006304418E+08,
2459797.500000000, A.D. 2022-Aug-06 00:00:00.0000, -6.529707496535974E+09, -4.342375621874802E+08, 2.501259235691454E+08,
2459804.500000000, A.D. 2022-Aug-13 00:00:00.0000, -6.529497187428755E+09, -4.369111139506332E+08, 2.504125050835581E+08,
2459811.500000000, A.D. 2022-Aug-20 00:00:00.0000, -6.529285841401006E+09, -4.395845901448652E+08, 2.506990451044417E+08,
2459818.500000000, A.D. 2022-Aug-27 00:00:00.0000, -6.529073457545554E+09, -4.422579913025354E+08, 2.509855435474867E+08,
2459825.500000000, A.D. 2022-Sep-03 00:00:00.0000, -6.528860034965478E+09, -4.449313177355362E+08, 2.512720003287674E+08,
2459832.500000000, A.D. 2022-Sep-10 00:00:00.0000, -6.528645572908503E+09, -4.476045695375326E+08, 2.515584153760646E+08,
2459839.500000000, A.D. 2022-Sep-17 00:00:00.0000, -6.528430070902693E+09, -4.502777466874682E+08, 2.518447886332692E+08,
2459846.500000000, A.D. 2022-Sep-24 00:00:00.0000, -6.528213528833005E+09, -4.529508493052143E+08, 2.521311200481370E+08,
2459853.500000000, A.D. 2022-Oct-01 00:00:00.0000, -6.527995946718717E+09, -4.556238780816660E+08, 2.524174095194493E+08,
2459860.500000000, A.D. 2022-Oct-08 00:00:00.0000, -6.527777323784433E+09, -4.582968343611971E+08, 2.527036568087027E+08,
2459867.500000000, A.D. 2022-Oct-15 00:00:00.0000, -6.527557657756507E+09, -4.609697186773006E+08, 2.529898615995595E+08,
2459874.500000000, A.D. 2022-Oct-22 00:00:00.0000, -6.527336946566458E+09, -4.636425294253043E+08, 2.532760237672896E+08,
2459881.500000000, A.D. 2022-Oct-29 00:00:00.0000, -6.527115189963575E+09, -4.663152642656474E+08, 2.535621434168664E+08,
2459888.500000000, A.D. 2022-Nov-05 00:00:00.0000, -6.526892388937387E+09, -4.689879215165715E+08, 2.538482207208898E+08,
2459895.500000000, A.D. 2022-Nov-12 00:00:00.0000, -6.526668544914820E+09, -4.716605002690033E+08, 2.541342558408790E+08,
2459902.500000000, A.D. 2022-Nov-19 00:00:00.0000, -6.526443659451441E+09, -4.743330001777418E+08, 2.544202489197539E+08,
2459909.500000000, A.D. 2022-Nov-26 00:00:00.0000, -6.526217734154535E+09, -4.770054213262804E+08, 2.547062000888339E+08,
2459916.500000000, A.D. 2022-Dec-03 00:00:00.0000, -6.525990770672006E+09, -4.796777641767927E+08, 2.549921094730867E+08,
2459923.500000000, A.D. 2022-Dec-10 00:00:00.0000, -6.525762770701570E+09, -4.823500295865902E+08, 2.552779771919264E+08,
2459930.500000000, A.D. 2022-Dec-17 00:00:00.0000, -6.525533735995522E+09, -4.850222189160457E+08, 2.555638033512423E+08,
2459937.500000000, A.D. 2022-Dec-24 00:00:00.0000, -6.525303668251694E+09, -4.876943342938139E+08, 2.558495880112615E+08,
2459944.500000000, A.D. 2022-Dec-31 00:00:00.0000, -6.525072568532951E+09, -4.903663789318423E+08, 2.561353311062728E+08,
2459951.500000000, A.D. 2023-Jan-07 00:00:00.0000, -6.524840436092531E+09, -4.930383565277748E+08, 2.564210323836557E+08,
2459958.500000000, A.D. 2023-Jan-14 00:00:00.0000, -6.524607268572234E+09, -4.957102692579448E+08, 2.567066915833056E+08,
2459965.500000000, A.D. 2023-Jan-21 00:00:00.0000, -6.524373064218214E+09, -4.983821175335875E+08, 2.569923086573968E+08,
2459972.500000000, A.D. 2023-Jan-28 00:00:00.0000, -6.524137822446380E+09, -5.010539017157722E+08, 2.572778836781373E+08,
2459979.500000000, A.D. 2023-Feb-04 00:00:00.0000, -6.523901542965927E+09, -5.037256227613032E+08, 2.575634167001529E+08,
2459986.500000000, A.D. 2023-Feb-11 00:00:00.0000, -6.523664225256250E+09, -5.063972819931220E+08, 2.578489077264481E+08,
2459993.500000000, A.D. 2023-Feb-18 00:00:00.0000, -6.523425868460390E+09, -5.090688808182595E+08, 2.581343567165868E+08,
2460000.500000000, A.D. 2023-Feb-25 00:00:00.0000, -6.523186471432130E+09, -5.117404205549463E+08, 2.584197635999091E+08,
2460007.500000000, A.D. 2023-Mar-04 00:00:00.0000, -6.522946032834381E+09, -5.144119023498482E+08, 2.587051282861019E+08,
2460014.500000000, A.D. 2023-Mar-11 00:00:00.0000, -6.522704551260038E+09, -5.170833271846853E+08, 2.589904506707276E+08,
2460021.500000000, A.D. 2023-Mar-18 00:00:00.0000, -6.522462025328060E+09, -5.197546960214669E+08, 2.592757306275564E+08,
2460028.500000000, A.D. 2023-Mar-25 00:00:00.0000, -6.522218453551270E+09, -5.224260101333005E+08, 2.595609679654144E+08,
2460035.500000000, A.D. 2023-Apr-01 00:00:00.0000, -6.521973833551130E+09, -5.250972712271610E+08, 2.598461623429789E+08,
2460042.500000000, A.D. 2023-Apr-08 00:00:00.0000, -6.521728161234791E+09, -5.277684801334299E+08, 2.601313132982740E+08,
2460049.500000000, A.D. 2023-Apr-15 00:00:00.0000, -6.521481432271242E+09, -5.304396351682099E+08, 2.604164205170062E+08,
2460056.500000000, A.D. 2023-Apr-22 00:00:00.0000, -6.521233644057327E+09, -5.331107332202535E+08, 2.607014839244951E+08,
2460063.500000000, A.D. 2023-Apr-29 00:00:00.0000, -6.520984795438497E+09, -5.357817713095464E+08, 2.609865035344849E+08,
2460070.500000000, A.D. 2023-May-06 00:00:00.0000, -6.520734885944491E+09, -5.384527468363034E+08, 2.612714793618151E+08,
2460077.500000000, A.D. 2023-May-13 00:00:00.0000, -6.520483915516690E+09, -5.411236574138194E+08, 2.615564114154228E+08,
2460084.500000000, A.D. 2023-May-20 00:00:00.0000, -6.520231884492949E+09, -5.437945007761714E+08, 2.618412997098894E+08,
2460091.500000000, A.D. 2023-May-27 00:00:00.0000, -6.519978793656434E+09, -5.464652747901235E+08, 2.621261442751481E+08,
2460098.500000000, A.D. 2023-Jun-03 00:00:00.0000, -6.519724644290844E+09, -5.491359775451808E+08, 2.624109451609239E+08,
2460105.500000000, A.D. 2023-Jun-10 00:00:00.0000, -6.519469438218238E+09, -5.518066075354872E+08, 2.626957024323180E+08,
2460112.500000000, A.D. 2023-Jun-17 00:00:00.0000, -6.519213177730424E+09, -5.544771639936152E+08, 2.629804161431824E+08,
2460119.500000000, A.D. 2023-Jun-24 00:00:00.0000, -6.518955865093918E+09, -5.571476473205737E+08, 2.632650862622251E+08,
2460126.500000000, A.D. 2023-Jul-01 00:00:00.0000, -6.518697501375355E+09, -5.598180587838845E+08, 2.635497125960868E+08,
2460133.500000000, A.D. 2023-Jul-08 00:00:00.0000, -6.518438086261305E+09, -5.624883986616068E+08, 2.638342949299388E+08,
2460140.500000000, A.D. 2023-Jul-15 00:00:00.0000, -6.518177620149252E+09, -5.651586656620559E+08, 2.641188332713356E+08,
$$EOE